ONEWEB-0328             
1 49197U 21083M   25264.54303299  .00000054  00000+0  11402-3 0  9997
2 49197  87.9046  13.5706 0001851 103.3868 256.7468 13.13467881195636
ONEWEB-0331             
1 49198U 21083N   25264.62038275  .00000006  00000+0 -18774-4 0  9994
2 49198  87.9206  28.7751 0002070  94.5024 265.6345 13.18685056194613
ONEWEB-0333             
1 49199U 21083P   25264.53796311  .00000222  00000+0  57408-3 0  9992
2 49199  87.9034  13.6378 0001664  99.9953 260.1364 13.13471314195649
ONEWEB-0334             
1 49200U 21083Q   25264.58470961  .00000045  00000+0  79403-4 0  9993
2 49200  87.9254 328.0210 0000898 115.3019 244.8208 13.20772117201331
ONEWEB-0335             
1 49201U 21083R   25264.53287843  .00000324  00000+0  85223-3 0  9990
2 49201  87.9032  13.6262 0001914  96.6133 263.5214 13.13471868195651
ONEWEB-0336             
1 49202U 21083S   25264.58026697 -.00000043  00000+0 -15165-3 0  9992
2 49202  87.9036  13.6108 0001960  96.6394 263.4959 13.13473982195659
ONEWEB-0337             
1 49203U 21083T   25264.59029511  .00000167  00000+0  42345-3 0  9997
2 49203  87.9047  13.6138 0001963 102.5558 257.5791 13.13468762195655
ONEWEB-0338             
1 49204U 21083U   25264.55945977  .00000007  00000+0 -15866-4 0  9990
2 49204  87.9267 328.0258 0001607 102.8741 257.2572 13.20769940201357
ONEWEB-0339             
1 49205U 21083V   25264.59890537  .00000427  00000+0  11348-2 0  9990
2 49205  87.9046  13.5964 0001717 105.2235 254.9084 13.13468762195635
ONEWEB-0340             
1 49206U 21083W   25264.60718842  .00000041  00000+0  72220-4 0  9991
2 49206  87.9205  28.7819 0001797  96.9198 263.2139 13.18684571194571
ONEWEB-0341             
1 49207U 21083X   25264.61378486  .00000076  00000+0  16112-3 0  9994
2 49207  87.9207  28.7934 0002156 110.1265 250.0100 13.18684264194599
ONEWEB-0342             
1 49208U 21083Y   25264.56577238  .00000148  00000+0  33123-3 0  9996
2 49208  87.9259 327.9933 0001739  99.5503 260.5827 13.20772252201321
ONEWEB-0343             
1 49209U 21083Z   25264.60966156  .00000015  00000+0  45813-5 0  9997
2 49209  87.9203  28.7797 0001862 117.3086 242.8236 13.18687021194646
ONEWEB-0344             
1 49210U 21083AA  25264.59382431  .00000279  00000+0  72934-3 0  9999
2 49210  87.9034  13.6354 0002115 108.1778 251.9582 13.13471775195637
ONEWEB-0345             
1 49211U 21083AB  25264.58537242  .00000126  00000+0  31066-3 0  9993
2 49211  87.9041  13.5911 0002090 109.3607 250.7748 13.13470743195646
ONEWEB-0346             
1 49212U 21083AC  25264.61873759 -.00000044  00000+0 -14422-3 0  9992
2 49212  87.9206  28.8006 0002115  84.2761 275.8612 13.18687447194580
ONEWEB-0348             
1 49213U 21083AD  25264.55630549 -.00000001  00000+0 -34689-4 0  9995
2 49213  87.9257 328.0067 0002489  97.3418 262.7998 13.20772301201350
ONEWEB-0350             
1 49214U 21083AE  25264.59467807  .00000328  00000+0  86211-3 0  9992
2 49214  87.9049  13.5827 0002035 104.8625 255.2730 13.13469562195673
ONEWEB-0351             
1 49215U 21083AF  25264.54985708  .00000052  00000+0  96824-4 0  9999
2 49215  87.9272 327.9964 0001585 126.8774 233.2505 13.20770842201313
ONEWEB-0352             
1 49216U 21083AG  25264.34666434 -.00000214  00000+0 -62200-3 0  9992
2 49216  87.9032  13.6659 0001518 114.8233 245.3054 13.13471649195737
ONEWEB-0354             
1 49217U 21083AH  25264.42373362  .00000133  00000+0  29546-3 0  9991
2 49217  87.9268 328.0196 0002181 100.6955 259.4424 13.20771110201334
ONEWEB-0355             
1 49218U 21083AJ  25264.60413856  .00000348  00000+0  91869-3 0  9990
2 49218  87.9045  13.6219 0001810 107.4950 252.6378 13.13470215195642
ONEWEB-0357             
1 49219U 21083AK  25264.57209694  .00000041  00000+0  68687-4 0  9993
2 49219  87.9260 327.9898 0001881 103.2028 256.9316 13.20771206201351
ONEWEB-0332             
1 49279U 21090A   25264.59896912  .00000184  00000+0  46137-3 0  9997
2 49279  87.9081 343.2053 0001536 100.6983 259.4320 13.14503578192293
ONEWEB-0347             
1 49280U 21090B   25264.56261570  .00000092  00000+0  19339-3 0  9994
2 49280  87.9263 328.0051 0001567  89.8881 270.2432 13.20771117195588
ONEWEB-0349             
1 49281U 21090C   25264.59418377  .00000097  00000+0  20624-3 0  9991
2 49281  87.9258 327.9991 0001861 101.7466 258.3877 13.20771326194372
ONEWEB-0353             
1 49282U 21090D   25264.59103686  .00000242  00000+0  61921-3 0  9993
2 49282  87.9072 343.1913 0001541  97.8925 262.2380 13.14504372192291
ONEWEB-0356             
1 49283U 21090E   25264.59260840  .00000042  00000+0  71372-4 0  9990
2 49283  87.9256 327.9911 0002267  76.5919 283.5467 13.20771037194371
ONEWEB-0358             
1 49284U 21090F   25264.54683262  .00000006  00000+0 -16562-4 0  9994
2 49284  87.9270 327.9942 0001998  95.3061 264.8300 13.20769620195092
ONEWEB-0359             
1 49285U 21090G   25264.54368002  .00000042  00000+0  70907-4 0  9999
2 49285  87.9260 328.0015 0002268 101.0811 259.0578 13.20770297195077
ONEWEB-0360             
1 49286U 21090H   25264.60997009  .00000031  00000+0  44158-4 0  9999
2 49286  87.9259 327.9972 0002025 101.7023 258.4338 13.20770334194392
ONEWEB-0361             
1 49287U 21090J   25264.59102988  .00000044  00000+0  77196-4 0  9994
2 49287  87.9258 327.9970 0001956  93.4586 266.6771 13.20770427194848
ONEWEB-0362             
1 49288U 21090K   25264.55833865  .00000005  00000+0 -19651-4 0  9996
2 49288  87.9286 358.4123 0001759 108.5519 251.5806 13.19726320191484
ONEWEB-0363             
1 49289U 21090L   25264.60681017  .00000060  00000+0  11605-3 0  9993
2 49289  87.9261 327.9897 0002062  89.0590 271.0779 13.20770619194859
ONEWEB-0364             
1 49290U 21090M   25264.56893204 -.00000002  00000+0 -37029-4 0  9990
2 49290  87.9258 328.0233 0001908  93.3007 266.8345 13.20770013195986
ONEWEB-0365             
1 49291U 21090N   25264.49198585 -.00000032  00000+0 -11252-3 0  9995
2 49291  87.9288 358.3806 0001679 101.6800 258.4522 13.19725933190989
ONEWEB-0366             
1 49292U 21090P   25264.58787246  .00000220  00000+0  55896-3 0  9993
2 49292  87.9081 343.2076 0001858  98.7249 261.4091 13.14504178192275
ONEWEB-0367             
1 49293U 21090Q   25264.45371092  .00000028  00000+0  36787-4 0  9993
2 49293  87.9263 328.0158 0001810 104.3874 255.7460 13.20769973194356
ONEWEB-0368             
1 49294U 21090R   25264.42688696  .00000093  00000+0  19667-3 0  9991
2 49294  87.9258 328.0566 0001476  73.7703 286.3593 13.20770662195504
ONEWEB-0369             
1 49295U 21090S   25264.56307124  .00000085  00000+0  17897-3 0  9995
2 49295  87.9291 358.3983 0001721 100.6455 259.4872 13.19726196190987
ONEWEB-0370             
1 49296U 21090T   25264.46318746  .00000057  00000+0  10705-3 0  9997
2 49296  87.9264 328.0222 0002084 106.4836 253.6527 13.20770006194391
ONEWEB-0371             
1 49297U 21090U   25264.49514585 -.00000019  00000+0 -79558-4 0  9992
2 49297  87.9284 358.4003 0001737 103.6315 256.5012 13.19725788191015
ONEWEB-0372             
1 49298U 21090V   25264.45200762 -.00000044  00000+0 -13942-3 0  9990
2 49298  87.9259 328.0269 0001758  98.3860 261.7473 13.20771687194364
ONEWEB-0373             
1 49299U 21090W   25264.55472784  .00000063  00000+0  12215-3 0  9998
2 49299  87.9257 328.0202 0001981  96.9149 263.2209 13.20772055195569
ONEWEB-0374             
1 49300U 21090X   25264.49907681 -.00000020  00000+0 -89740-4 0  9996
2 49300  87.9077 343.2014 0001907  82.7044 277.4302 13.14501995192268
ONEWEB-0375             
1 49301U 21090Y   25264.46634552 -.00000037  00000+0 -12267-3 0  9995
2 49301  87.9262 328.0175 0002317  86.6360 273.5038 13.20770875195059
ONEWEB-0376             
1 49302U 21090Z   25264.49356587  .00000061  00000+0  11988-3 0  9992
2 49302  87.9290 358.3831 0001573 103.0514 257.0795 13.19724176191014
ONEWEB-0377             
1 49303U 21090AA  25264.60380022  .00000146  00000+0  32820-3 0  9999
2 49303  87.9267 327.9854 0002103 100.9547 259.1823 13.20772275195067
ONEWEB-0378             
1 49304U 21090AB  25264.47434362 -.00000032  00000+0 -10982-3 0  9993
2 49304  87.9275 328.0244 0001961  94.4167 265.7190 13.20768944194313
ONEWEB-0379             
1 49305U 21090AC  25264.49429841 -.00000050  00000+0 -17050-3 0  9995
2 49305  87.9081 343.2097 0001741  97.1752 262.9576 13.14504816192268
ONEWEB-0380             
1 49306U 21090AD  25264.56622699 -.00000031  00000+0 -11038-3 0  9999
2 49306  87.9286 358.3959 0002020  99.2096 260.9266 13.19725877190994
ONEWEB-0381             
1 49307U 21090AE  25264.60050597  .00000103  00000+0  22024-3 0  9992
2 49307  87.9259 327.9945 0002085  92.6347 267.5025 13.20770656194378
ONEWEB-0382             
1 49308U 21090AF  25264.58786974  .00000052  00000+0  94874-4 0  9991
2 49308  87.9264 327.9877 0001986  89.5560 270.5801 13.20771549194367
ONEWEB-0383             
1 49309U 21090AG  25264.48795740 -.00000162  00000+0 -47231-3 0  9990
2 49309  87.9089 343.1920 0001770  95.3231 264.8101 13.14504815192295
ONEWEB-0384             
1 49310U 21090AH  25264.58280172  .00000057  00000+0  10865-3 0  9995
2 49310  87.9280 328.0149 0001968  83.2787 276.8570 13.20790729194378
ONEWEB-0385             
1 49311U 21090AJ  25264.42846801  .00000066  00000+0  13106-3 0  9997
2 49311  87.9255 328.0305 0001940  93.4033 266.7323 13.20770275194325
ONEWEB-0386             
1 49312U 21090AK  25264.59734415  .00000128  00000+0  28220-3 0  9995
2 49312  87.9266 327.9734 0001895  89.3130 270.8221 13.20771910194367
ONEWEB-0387             
1 49313U 21090AL  25264.43004323  .00000082  00000+0  17040-3 0  9994
2 49313  87.9258 328.0596 0002210  95.5571 264.5815 13.20771423194343
ONEWEB-0388             
1 49314U 21090AM  25264.33404615  .00000058  00000+0  11255-3 0  9997
2 49314  87.9283 358.4479 0001827  95.7195 264.4146 13.19724935190959
